P/2012 K3 (Gibbs),e,13.1888,125.8198,172.2412,3.628563,0.1425943,0.42249096,178.8311,01/22.0/2023,2000,g 15.0,4.0
# From MPC 88326
P/2012 NJ (La Sagra),e,84.5638,315.5957,338.3860,8.466122,0.0400108,0.84673374,154.9482,01/22.0/2023,2000,g 14.5,4.0
# From MPC 81470
P/2012 O1 (McNaught),e,7.4269,91.9275,238.3323,3.541731,0.1478702,0.59425998,210.1278,01/22.0/2023,2000,g 17.5,4.0
# From MPC 80899
P/2012 O2 (McNaught),e,24.4678,120.6832,183.4773,3.626303,0.1427276,0.53197311,193.7164,01/22.0/2023,2000,g 17.0,4.0
# From MPC 82320
P/2012 T2 (PANSTARRS),e,12.5679,73.7163,310.7864,5.727661,0.0719015,0.16236917,255.3960,01/22.0/2023,2000,g 10.0,4.0
# From MPC 80900
P/2012 T3 (PANSTARRS),e,9.5578,114.3668,195.5425,6.151316,0.0646029,0.61665741,252.7836,01/22.0/2023,2000,g 15.0,4.0
# From MPC 82720
P/2012 U2 (PANSTARRS),e,10.7598,185.3262,228.2603,7.131626,0.0517513,0.50002463,192.4634,01/22.0/2023,2000,g 12.5,4.0
# From MPC 84024
P/2012 US27 (Siding Spring),e,39.3693,49.2073,0.8291,5.164550,0.0839760,0.64827866,306.4032,01/22.0/2023,2000,g 13.5,4.0
# From MPC 82721
P/2012 WA34 (Lemmon-PANSTARRS),e,6.0818,93.5569,356.6017,4.680709,0.0973277,0.34381614,343.6809,01/22.0/2023,2000,g 13.5,4.0
# From MPC 82721
P/2013 AL76 (Catalina),e,144.8725,146.0157,27.0405,6.499837,0.0594772,0.68594451,220.3026,01/22.0/2023,2000,g 16.0,4.0
# From MPEC 2022-K19
P/2013 EW90,e,31.7918,160.2898,346.0391,4.112278,0.1181899,0.19468358,83.5580,01/22.0/2023,2000,g 14.3,4.0
# From MPC 91612
P/2013 G1 (Kowalski),e,5.4579,221.3086,51.5471,6.897818,0.0544047,0.51112891,181.2422,01/22.0/2023,2000,g 11.0,4.0
# From MPC 84025
P/2013 G4 (PANSTARRS),e,5.9160,339.6332,214.6219,4.438157,0.1054144,0.40918014,22.8475,01/22.0/2023,2000,g 15.0,4.0
# From MPC 91613
P/2013 J2 (McNaught),e,15.5098,289.3409,37.8769,6.223210,0.0634866,0.65730290,217.7913,01/22.0/2023,2000,g 13.0,4.0
# From MPC 86229
P/2013 N3 (PANSTARRS),e,2.1736,17.4743,323.9758,7.395567,0.0490057,0.59297674,159.7371,01/22.0/2023,2000,g 13.0,4.0
# From MPC 85834
P/2013 N5 (PANSTARRS),e,23.4620,187.1552,176.9465,6.797017,0.0556194,0.73251218,193.8260,01/22.0/2023,2000,g 17.0,4.0
# From MPC 85834
P/2013 P1 (PANSTARRS),e,18.7227,160.6013,138.2542,8.582732,0.0391982,0.60449782,141.7127,01/22.0/2023,2000,g 12.0,4.0
# From MPEC 2022-V95
P/2013 R3 (Catalina-PANSTARRS),e,0.8650,341.9774,11.2910,3.031943,0.1866906,0.27562723,280.9605,01/22.0/2023,2000,g 14.0,4.0
# From unp
P/2013 R3-A (Catalina-PANSTARRS),e,0.8642,341.9322,11.3699,3.031698,0.1867133,0.27555789,281.0205,01/22.0/2023,2000,g  9.0,4.0
# From MPEC 2015-M77
P/2013 R3-B (Catalina-PANSTARRS),e,0.8654,341.9882,11.3047,3.031918,0.1866930,0.27560319,280.9551,01/22.0/2023,2000,g  9.0,4.0
# From MPC 85835
P/2013 T1 (PANSTARRS),e,24.3033,10.0803,346.1712,5.856677,0.0695388,0.62428741,240.1575,01/22.0/2023,2000,g 16.5,4.0
# From MPC 86643
P/2013 T2 (Schwartz),e,9.4572,0.8013,345.5847,3.491904,0.1510465,0.50104577,173.4048,01/22.0/2023,2000,g 16.0,4.0
# From MPC 91613
P/2013 W1 (PANSTARRS),e,4.6967,117.8395,1.2266,3.487395,0.1513395,0.59292471,130.7218,01/22.0/2023,2000,g 17.5,4.0
# From MPC101095
P/2013 YG46 (Spacewatch),e,7.8576,48.8365,242.6031,3.273644,0.1664014,0.45460887,2.6132,01/22.0/2023,2000,g 10.0,4.0
# From MPC 89728
P/2014 A2 (Hill),e,24.5469,106.6334,356.1456,5.927128,0.0683027,0.64572501,231.6259,01/22.0/2023,2000,g 15.0,4.0
# From MPC 92981
P/2014 A3 (PANSTARRS),e,13.7170,229.9774,214.1366,4.607965,0.0996415,0.24656344,350.9951,01/22.0/2023,2000,g 12.0,4.0
# From MPC102095
P/2014 C1 (TOTAS),e,2.6933,167.8198,23.9431,3.031904,0.1866942,0.45129036,256.9497,01/22.0/2023,2000,g 15.5,4.0
# From MPEC 2022-WD2
C/2014 F3 (Sheppard-Trujillo),e,6.5384,326.3475,4.5456,14.56984,0.0177224,0.60815683,10.6824,01/22.0/2023,2000,g  6.0,4.0
# From MPC 98560
P/2014 L2 (NEOWISE),e,5.1985,149.3461,182.7208,6.305453,0.0622486,0.64786909,193.3433,01/22.0/2023,2000,g 12.0,4.0
# From MPC 90769
P/2014 L3 (Hill),e,6.2668,115.4951,178.7077,8.178470,0.0421401,0.77263170,131.8073,01/22.0/2023,2000,g 16.0,4.0
# From MPC 91614
P/2014 M4 (PANSTARRS),e,3.3435,263.1829,148.0456,5.868174,0.0693345,0.59565683,204.2161,01/22.0/2023,2000,g 15.0,4.0
# From MPEC 2022-K19
P/2014 MG4 (Spacewatch-PANSTARRS),e,9.3665,311.7255,299.0329,5.013429,0.0878015,0.25889195,307.8022,01/22.0/2023,2000,g  9.5,4.0
# From MPC 98560
P/2014 O3 (PANSTARRS),e,7.7956,87.6395,204.7892,7.577111,0.0472551,0.38434853,151.2733,01/22.0/2023,2000,g 10.5,4.0
# From MPEC 2023-A50
C/2014 OG392 (PANSTARRS),e,9.0329,145.8036,254.3981,12.25456,0.0229751,0.18637475,9.4015,01/22.0/2023,2000,g  6.0,4.0
# From MPC 91616
P/2014 U4 (PANSTARRS),e,6.4291,11.8851,347.8413,3.508971,0.1499458,0.46483564,106.0635,01/22.0/2023,2000,g 18.0,4.0
# From MPEC 2023-B57
C/2014 UN271 (Bernardinelli-Bernstein),h,01/21.9519/2031,95.4297,189.8967,326.2341,1.001098,10.946770,2000,2.5,3.2
# From MPC 95211
P/2014 V1 (PANSTARRS),e,22.5248,166.1989,177.6584,5.479453,0.0768419,0.53441682,224.0913,01/22.0/2023,2000,g 14.0,4.0
# From MPC 93586
P/2014 W1 (PANSTARRS),e,8.8359,246.2273,152.1265,4.467454,0.1043792,0.38943785,325.4322,01/22.0/2023,2000,g 15.5,4.0
# From MPC105542
P/2014 W4 (PANSTARRS),e,15.2834,33.3892,67.5915,6.588061,0.0582865,0.35342308,150.3267,01/22.0/2023,2000,g 11.0,4.0
# From MPC 94281
P/2014 X1 (Elenin),e,26.0492,61.5667,33.8664,6.204609,0.0637724,0.70964054,187.6694,01/22.0/2023,2000,g 15.0,4.0
# From MPC 92275
P/2015 A3 (PANSTARRS),e,172.5416,277.3305,249.4690,7.815546,0.0451092,0.85034173,130.6191,01/22.0/2023,2000,g 20.0,4.0
# From MPC 99270
P/2015 B1 (PANSTARRS),e,18.0545,352.9181,188.8668,9.490003,0.0337136,0.36645675,90.7533,01/22.0/2023,2000,g  8.5,4.0
# From MPC109141
P/2015 B4 (Lemmon-PANSTARRS),e,1.7636,266.0659,227.2435,8.516182,0.0396585,0.56063749,115.4260,01/22.0/2023,2000,g 11.0,4.0
# From MPC101096
P/2015 C1 (TOTAS-Gibbs),e,13.9196,348.7917,178.0990,6.574156,0.0584715,0.56106805,165.5647,01/22.0/2023,2000,g 12.5,4.0
# From MPC109141
P/2015 D5 (Kowalski),e,20.5352,74.0733,39.6534,8.953201,0.0367906,0.49001596,118.3802,01/22.0/2023,2000,g  9.0,4.0
# From MPC 96866
P/2015 D6 (Lemmon-PANSTARRS),e,20.2069,45.8523,125.0039,7.135462,0.0517096,0.36138204,143.0804,01/22.0/2023,2000,g 10.5,4.0
# From MPEC 2021-P47
P/2015 HG16 (PANSTARRS),e,18.8689,57.3842,47.4740,4.783649,0.0942031,0.35205597,300.0846,01/22.0/2023,2000,g 12.5,4.0
# From MPC 95213
P/2015 K5 (PANSTARRS),e,39.9428,134.2186,106.3132,6.726551,0.0564957,0.55183565,157.7781,01/22.0/2023,2000,g 13.5,4.0
# From MPC107684
P/2015 M2 (PANSTARRS),e,3.9693,86.5829,226.0053,7.243917,0.0505526,0.17970501,135.8713,01/22.0/2023,2000,g  8.5,4.0
# From MPEC 2021-P47
C/2015 O1 (PANSTARRS),h,02/20.2134/2018,127.1716,299.8249,89.5263,1.001390,3.720255,2000,6.5,4.0
# From MPC 99819
P/2015 P4 (PANSTARRS),e,8.7178,104.6752,280.6791,6.046684,0.0662870,0.58574723,169.3708,01/22.0/2023,2000,g 14.0,4.0
# From MPEC 2022-K19
P/2015 PD229 (Cameron-ISON),e,2.0248,342.6611,352.7001,7.193506,0.0510850,0.32748108,138.6548,01/22.0/2023,2000,g 11.5,2.0
# From MPC 96867
P/2015 Q2 (Pimentel),e,146.5507,228.5371,244.6509,7.353462,0.0494272,0.75068035,133.1285,01/22.0/2023,2000,g 15.5,4.0
# From MPC 98562
P/2015 R1 (PANSTARRS),e,22.6990,48.3238,300.5864,5.880625,0.0691144,0.63425599,190.8829,01/22.0/2023,2000,g 14.0,4.0
# From MPC 95734
P/2015 R2 (PANSTARRS),e,15.4847,168.5960,149.8582,4.485268,0.1037580,0.45273946,288.0458,01/22.0/2023,2000,g 14.5,4.0
# From MPC 96280
P/2015 T3 (PANSTARRS),e,13.0937,120.5019,178.6330,4.326181,0.1095335,0.50818108,359.9227,12/21.0/2014,2000,g 14.0,4.0
# From MPC102953
P/2015 TO19 (Lemmon-PANSTARRS),e,6.5010,321.6260,89.1930,4.551707,0.1014945,0.35939286,254.8400,01/22.0/2023,2000,g 14.0,4.0
# From MPC110080
P/2015 TP200 (LINEAR),e,8.7804,7.0176,82.4390,7.264448,0.0503385,0.53628838,114.5720,01/22.0/2023,2000,g 11.0,4.0
# From MPC115881
C/2015 V1 (PANSTARRS),e,139.2312,197.1381,179.7177,2489,0.0000079,0.99827973,0.0000,12/16.4734/2017,2000,g  6.5,4.0
# From MPC101098
P/2015 W2 (Catalina),e,11.6104,294.1410,117.5637,7.290722,0.0500666,0.63531125,133.5007,01/22.0/2023,2000,g 13.0,4.0
# From MPEC 2022-OB6
C/2015 XY1 (Lemmon),e,148.8516,281.5692,196.1376,20515,0.0000003,0.99961367,0.0000,04/25.4306/2018,2000,g  5.5,4.0
# From MPEC 2022-OB6
P/2015 X3 (PANSTARRS),e,24.4047,77.2692,306.7675,5.003094,0.0880737,0.44006882,239.4532,01/22.0/2023,2000,g 15.0,4.0
# From MPC119995
C/2015 X5 (PANSTARRS),e,124.3214,122.3012,27.5386,8159,0.0000013,0.99916719,0.0000,12/27.0018/2017,2000,g  7.5,4.0
# From MPC115881
P/2015 X6 (PANSTARRS),e,4.5650,106.9319,329.7832,2.752256,0.2158593,0.17319684,178.4676,01/22.0/2023,2000,g 16.0,4.0
# From MPEC 2022-O08
C/2016 A1 (PANSTARRS),e,121.2178,128.1614,10.0806,6227,0.0000020,0.99914631,0.0000,11/20.5792/2017,2000,g  6.0,4.0
# From MPC100282
P/2016 A2 (Christensen),e,26.4038,291.6180,141.2852,4.753605,0.0950976,0.27091988,264.4105,01/22.0/2023,2000,g 11.5,4.0
# From MPEC 2022-OB6
P/2016 A3 (PANSTARRS),e,8.5111,187.2206,340.9099,7.879338,0.0445625,0.38603409,93.4560,01/22.0/2023,2000,g 10.0,4.0
# From MPC102098
P/2016 A7 (PANSTARRS),e,16.6031,221.4972,352.5211,5.035244,0.0872315,0.56446477,220.6142,01/22.0/2023,2000,g 16.0,4.0
# From MPC109143
P/2016 BA14 (PANSTARRS),e,18.8969,180.5132,351.9705,3.026760,0.1871704,0.66444870,109.3048,01/22.0/2023,2000,g 21.0,4.0
# From MPEC 2021-P47
P/2016 G1 (PANSTARRS),e,10.9711,204.0177,111.1489,2.582850,0.2374408,0.21069442,159.3813,01/22.0/2023,2000,g 14.0,4.0
# From MPEC 2017-D91
P/2016 J1-A (PANSTARRS),e,14.3292,199.8086,47.0848,3.172786,0.1743985,0.22770463,58.4213,01/22.0/2023,2000,g 16.5,4.0
# From MPEC 2017-A77
P/2016 J1-B (PANSTARRS),e,14.3320,199.8134,46.9762,3.172422,0.1744286,0.22755537,58.5691,01/22.0/2023,2000,g 17.0,4.0
# From MPEC 2022-ED3
C/2016 M1 (PANSTARRS),e,90.8680,92.2620,209.9357,59462,0.0000001,0.99996276,0.0000,08/10.5039/2018,2000,g  5.0,4.0
# From MPEC 2021-P47
C/2016 N6 (PANSTARRS),e,105.8610,298.9127,162.5836,971.2572,0.0000326,0.99726141,0.0000,07/17.4578/2018,2000,g  7.0,4.0
